CCSDS_OMM_VERS = 2.0
CREATION_DATE  = 
ORIGINATOR     = 

OBJECT_NAME    = STARLINK-35592
OBJECT_ID      = 2025-237Y
CENTER_NAME    = EARTH
REF_FRAME      = TEME
TIME_SYSTEM    = UTC
MEAN_ELEMENT_THEORY = SGP/SGP4

EPOCH          = 2025-11-06T20:00:03.000384
MEAN_MOTION    = 15.74025593
ECCENTRICITY   = .0001187
INCLINATION    = 53.1599
RA_OF_ASC_NODE = 257.9574
ARG_OF_PERICENTER = 109.8497
MEAN_ANOMALY   = 213.0746

EPHEMERIS_TYPE = 0
CLASSIFICATION_TYPE = U
NORAD_CAT_ID   = 66136
ELEMENT_SET_NO = 999
REV_AT_EPOCH   = 370
BSTAR          = .52558E-3
MEAN_MOTION_DOT = .765E-3
MEAN_MOTION_DDOT = 0

CCSDS_OMM_VERS = 2.0
CREATION_DATE  = 
ORIGINATOR     = 

OBJECT_NAME    = STARLINK-35576
OBJECT_ID      = 2025-237Z
CENTER_NAME    = EARTH
REF_FRAME      = TEME
TIME_SYSTEM    = UTC
MEAN_ELEMENT_THEORY = SGP/SGP4

EPOCH          = 2025-11-06T20:00:03.000384
MEAN_MOTION    = 15.74037220
ECCENTRICITY   = .0001388
INCLINATION    = 53.1601
RA_OF_ASC_NODE = 257.9531
ARG_OF_PERICENTER = 119.3259
MEAN_ANOMALY   = 205.5025

EPHEMERIS_TYPE = 0
CLASSIFICATION_TYPE = U
NORAD_CAT_ID   = 66137
ELEMENT_SET_NO = 999
REV_AT_EPOCH   = 370
BSTAR          = .47152E-3
MEAN_MOTION_DOT = .68537E-3
MEAN_MOTION_DDOT = 0

CCSDS_OMM_VERS = 2.0
CREATION_DATE  = 
ORIGINATOR     = 

OBJECT_NAME    = STARLINK-35623
OBJECT_ID      = 2025-237AA
CENTER_NAME    = EARTH
REF_FRAME      = TEME
TIME_SYSTEM    = UTC
MEAN_ELEMENT_THEORY = SGP/SGP4

EPOCH          = 2025-11-06T20:00:03.000384
MEAN_MOTION    = 15.74017529
ECCENTRICITY   = .0001349
INCLINATION    = 53.1601
RA_OF_ASC_NODE = 257.9494
ARG_OF_PERICENTER = 59.5931
MEAN_ANOMALY   = 267.1693

EPHEMERIS_TYPE = 0
CLASSIFICATION_TYPE = U
NORAD_CAT_ID   = 66138
ELEMENT_SET_NO = 999
REV_AT_EPOCH   = 370
BSTAR          = .49297E-3
MEAN_MOTION_DOT = .71649E-3
MEAN_MOTION_DDOT = 0

CCSDS_OMM_VERS = 2.0
CREATION_DATE  = 
ORIGINATOR     = 

OBJECT_NAME    = STARLINK-35549
OBJECT_ID      = 2025-237AB
CENTER_NAME    = EARTH
REF_FRAME      = TEME
TIME_SYSTEM    = UTC
MEAN_ELEMENT_THEORY = SGP/SGP4

EPOCH          = 2025-11-06T20:00:03.000384
MEAN_MOTION    = 15.74052318
ECCENTRICITY   = .0002015
INCLINATION    = 53.1601
RA_OF_ASC_NODE = 257.9412
ARG_OF_PERICENTER = 54.6932
MEAN_ANOMALY   = 275.8972

EPHEMERIS_TYPE = 0
CLASSIFICATION_TYPE = U
NORAD_CAT_ID   = 66139
ELEMENT_SET_NO = 999
REV_AT_EPOCH   = 370
BSTAR          = .18565E-3
MEAN_MOTION_DOT = .26486E-3
MEAN_MOTION_DDOT = 0

CCSDS_OMM_VERS = 2.0
CREATION_DATE  = 
ORIGINATOR     = 

OBJECT_NAME    = STARLINK-35625
OBJECT_ID      = 2025-237AC
CENTER_NAME    = EARTH
REF_FRAME      = TEME
TIME_SYSTEM    = UTC
MEAN_ELEMENT_THEORY = SGP/SGP4

EPOCH          = 2025-11-06T20:00:03.000384
MEAN_MOTION    = 15.74028270
ECCENTRICITY   = .000119
INCLINATION    = 53.1601
RA_OF_ASC_NODE = 257.9454
ARG_OF_PERICENTER = 93.6715
MEAN_ANOMALY   = 234.9930

EPHEMERIS_TYPE = 0
CLASSIFICATION_TYPE = U
NORAD_CAT_ID   = 66140
ELEMENT_SET_NO = 999
REV_AT_EPOCH   = 370
BSTAR          = .52543E-3
MEAN_MOTION_DOT = .76487E-3
MEAN_MOTION_DDOT = 0

CCSDS_OMM_VERS = 2.0
CREATION_DATE  = 
ORIGINATOR     = 

OBJECT_NAME    = STARLINK-35603
OBJECT_ID      = 2025-237AD
CENTER_NAME    = EARTH
REF_FRAME      = TEME
TIME_SYSTEM    = UTC
MEAN_ELEMENT_THEORY = SGP/SGP4

EPOCH          = 2025-11-06T20:00:03.000384
MEAN_MOTION    = 15.74023006
ECCENTRICITY   = .0001239
INCLINATION    = 53.1603
RA_OF_ASC_NODE = 257.9370
ARG_OF_PERICENTER = 69.2814
MEAN_ANOMALY   = 263.2237

EPHEMERIS_TYPE = 0
CLASSIFICATION_TYPE = U
NORAD_CAT_ID   = 66141
ELEMENT_SET_NO = 999
REV_AT_EPOCH   = 370
BSTAR          = .49065E-3
MEAN_MOTION_DOT = .71322E-3
MEAN_MOTION_DDOT = 0

CCSDS_OMM_VERS = 2.0
CREATION_DATE  = 
ORIGINATOR     = 

OBJECT_NAME    = TJS-20
OBJECT_ID      = 2025-238A
CENTER_NAME    = EARTH
REF_FRAME      = TEME
TIME_SYSTEM    = UTC
MEAN_ELEMENT_THEORY = SGP/SGP4

EPOCH          = 2025-11-06T18:14:23.192160
MEAN_MOTION    = 1.00270511
ECCENTRICITY   = .0001625
INCLINATION    = 5.9695
RA_OF_ASC_NODE = 300.4801
ARG_OF_PERICENTER = 143.6922
MEAN_ANOMALY   = 298.1240

EPHEMERIS_TYPE = 0
CLASSIFICATION_TYPE = U
NORAD_CAT_ID   = 66142
ELEMENT_SET_NO = 999
REV_AT_EPOCH   = 10
BSTAR          = 0
MEAN_MOTION_DOT = .26E-6
MEAN_MOTION_DDOT = 0

CCSDS_OMM_VERS = 2.0
CREATION_DATE  = 
ORIGINATOR     = 

OBJECT_NAME    = CZ-5 R/B
OBJECT_ID      = 2025-238B
CENTER_NAME    = EARTH
REF_FRAME      = TEME
TIME_SYSTEM    = UTC
MEAN_ELEMENT_THEORY = SGP/SGP4

EPOCH          = 2025-11-06T09:36:26.344224
MEAN_MOTION    = 1.93400840
ECCENTRICITY   = .7595139
INCLINATION    = 16.3507
RA_OF_ASC_NODE = 268.7811
ARG_OF_PERICENTER = 172.6399
MEAN_ANOMALY   = 214.4968

EPHEMERIS_TYPE = 0
CLASSIFICATION_TYPE = U
NORAD_CAT_ID   = 66143
ELEMENT_SET_NO = 999
REV_AT_EPOCH   = 28
BSTAR          = .17508E-2
MEAN_MOTION_DOT = .47549E-3
MEAN_MOTION_DDOT = .14106E-5

CCSDS_OMM_VERS = 2.0
CREATION_DATE  = 
ORIGINATOR     = 

OBJECT_NAME    = SPAINSAT NG II
OBJECT_ID      = 2025-239A
CENTER_NAME    = EARTH
REF_FRAME      = TEME
TIME_SYSTEM    = UTC
MEAN_ELEMENT_THEORY = SGP/SGP4

EPOCH          = 2025-11-05T18:04:25.946112
MEAN_MOTION    = 1.10720685
ECCENTRICITY   = .807982
INCLINATION    = 23.6444
RA_OF_ASC_NODE = 245.0523
ARG_OF_PERICENTER = 181.5611
MEAN_ANOMALY   = 171.6834

EPHEMERIS_TYPE = 0
CLASSIFICATION_TYPE = U
NORAD_CAT_ID   = 66144
ELEMENT_SET_NO = 999
REV_AT_EPOCH   = 16
BSTAR          = .11442E-1
MEAN_MOTION_DOT = -.261E-5
MEAN_MOTION_DDOT = 0

CCSDS_OMM_VERS = 2.0
CREATION_DATE  = 
ORIGINATOR     = 

OBJECT_NAME    = STATLINK-35318
OBJECT_ID      = 2025-240A
CENTER_NAME    = EARTH
REF_FRAME      = TEME
TIME_SYSTEM    = UTC
MEAN_ELEMENT_THEORY = SGP/SGP4

EPOCH          = 2025-11-06T19:40:09.807744
MEAN_MOTION    = 15.76095315
ECCENTRICITY   = .0000542
INCLINATION    = 53.1529
RA_OF_ASC_NODE = 277.2997
ARG_OF_PERICENTER = 15.4381
MEAN_ANOMALY   = 344.6655

EPHEMERIS_TYPE = 0
CLASSIFICATION_TYPE = U
NORAD_CAT_ID   = 66146
ELEMENT_SET_NO = 999
REV_AT_EPOCH   = 317
BSTAR          = -.37698E-2
MEAN_MOTION_DOT = -.562424E-2
MEAN_MOTION_DDOT = 0

CCSDS_OMM_VERS = 2.0
CREATION_DATE  = 
ORIGINATOR     = 

OBJECT_NAME    = STARLINK-33948
OBJECT_ID      = 2025-240B
CENTER_NAME    = EARTH
REF_FRAME      = TEME
TIME_SYSTEM    = UTC
MEAN_ELEMENT_THEORY = SGP/SGP4

EPOCH          = 2025-11-06T19:39:38.793600
MEAN_MOTION    = 15.76055226
ECCENTRICITY   = .000042
INCLINATION    = 53.1532
RA_OF_ASC_NODE = 277.2973
ARG_OF_PERICENTER = 121.1687
MEAN_ANOMALY   = 238.9374

EPHEMERIS_TYPE = 0
CLASSIFICATION_TYPE = U
NORAD_CAT_ID   = 66147
ELEMENT_SET_NO = 999
REV_AT_EPOCH   = 317
BSTAR          = -.39285E-2
MEAN_MOTION_DOT = -.583574E-2
MEAN_MOTION_DDOT = 0

CCSDS_OMM_VERS = 2.0
CREATION_DATE  = 
ORIGINATOR     = 

OBJECT_NAME    = STARLINK-35081
OBJECT_ID      = 2025-240C
CENTER_NAME    = EARTH
REF_FRAME      = TEME
TIME_SYSTEM    = UTC
MEAN_ELEMENT_THEORY = SGP/SGP4

EPOCH          = 2025-11-06T19:39:08.261568
MEAN_MOTION    = 15.76005807
ECCENTRICITY   = .0001291
INCLINATION    = 53.1530
RA_OF_ASC_NODE = 277.2943
ARG_OF_PERICENTER = 355.4005
MEAN_ANOMALY   = 4.7004

EPHEMERIS_TYPE = 0
CLASSIFICATION_TYPE = U
NORAD_CAT_ID   = 66148
ELEMENT_SET_NO = 999
REV_AT_EPOCH   = 312
BSTAR          = -.42796E-2
MEAN_MOTION_DOT = -.63094E-2
MEAN_MOTION_DDOT = 0

CCSDS_OMM_VERS = 2.0
CREATION_DATE  = 
ORIGINATOR     = 

OBJECT_NAME    = STARLINK-35601
OBJECT_ID      = 2025-240D
CENTER_NAME    = EARTH
REF_FRAME      = TEME
TIME_SYSTEM    = UTC
MEAN_ELEMENT_THEORY = SGP/SGP4

EPOCH          = 2025-11-06T12:01:05.238048
MEAN_MOTION    = 15.79775583
ECCENTRICITY   = .0010359
INCLINATION    = 53.1525
RA_OF_ASC_NODE = 278.8655
ARG_OF_PERICENTER = 296.2795
MEAN_ANOMALY   = 63.7162

EPHEMERIS_TYPE = 0
CLASSIFICATION_TYPE = U
NORAD_CAT_ID   = 66149
ELEMENT_SET_NO = 999
REV_AT_EPOCH   = 307
BSTAR          = .33029E-2
MEAN_MOTION_DOT = .671139E-2
MEAN_MOTION_DDOT = 0

CCSDS_OMM_VERS = 2.0
CREATION_DATE  = 
ORIGINATOR     = 

OBJECT_NAME    = STARLINK-35605
OBJECT_ID      = 2025-240E
CENTER_NAME    = EARTH
REF_FRAME      = TEME
TIME_SYSTEM    = UTC
MEAN_ELEMENT_THEORY = SGP/SGP4

EPOCH          = 2025-11-06T10:28:10.329024
MEAN_MOTION    = 15.81433454
ECCENTRICITY   = .0009097
INCLINATION    = 53.1526
RA_OF_ASC_NODE = 279.1743
ARG_OF_PERICENTER = 197.2569
MEAN_ANOMALY   = 162.8146

EPHEMERIS_TYPE = 0
CLASSIFICATION_TYPE = U
NORAD_CAT_ID   = 66150
ELEMENT_SET_NO = 999
REV_AT_EPOCH   = 306
BSTAR          = .40725E-2
MEAN_MOTION_DOT = .918117E-2
MEAN_MOTION_DDOT = 0

CCSDS_OMM_VERS = 2.0
CREATION_DATE  = 
ORIGINATOR     = 

OBJECT_NAME    = STARLINK-35540
OBJECT_ID      = 2025-240F
CENTER_NAME    = EARTH
REF_FRAME      = TEME
TIME_SYSTEM    = UTC
MEAN_ELEMENT_THEORY = SGP/SGP4

EPOCH          = 2025-11-06T12:01:02.691840
MEAN_MOTION    = 15.76938755
ECCENTRICITY   = .0000555
INCLINATION    = 53.1526
RA_OF_ASC_NODE = 278.8654
ARG_OF_PERICENTER = 315.4595
MEAN_ANOMALY   = 44.6381

EPHEMERIS_TYPE = 0
CLASSIFICATION_TYPE = U
NORAD_CAT_ID   = 66151
ELEMENT_SET_NO = 999
REV_AT_EPOCH   = 307
BSTAR          = -.33995E-2
MEAN_MOTION_DOT = -.528656E-2
MEAN_MOTION_DDOT = 0

